EUTELSAT HOTBIRD 13F    
1 54048U 22134A   26197.27251637  .00000076  00000+0  00000+0 0  9992
2 54048   0.0586 284.2996 0002016  73.0330  47.8906  1.00270244 13667
LDPE-2                  
1 54219U 22144A   26196.47266913  .00000014  00000+0  00000+0 0  9999
2 54219   5.6794  63.4142 0002359 109.0609 160.7234  1.00543934 12126
EUTELSAT HOTBIRD 13G    
1 54225U 22146A   26197.27251637  .00000000  00000+0  00000+0 0  9999
2 54225   0.0176 230.5305 0001954 308.8564 225.8484  1.00269712  7755
ZHONGXING-19            
1 54230U 22148A   26197.23098061  .00000000  00000+0  00000+0 0  9993
2 54230   0.0208  61.9744 0003084  74.1661  44.2736  1.00269752 13672
GALAXY 31 (G-31)        
1 54243U 22153A   26197.24592750  .00000003  00000+0  00000+0 0  9991
2 54243   0.0143  89.4794 0001026  30.4985 141.6154  1.00271495  7421
GALAXY 32 (G-32)        
1 54244U 22153B   26197.30416021 -.00000185  00000+0  00000+0 0  9997
2 54244   0.0086  46.8581 0001348 357.5455 268.2247  1.00272471 13433
EUTELSAT 10B            
1 54259U 22157A   26197.27190969  .00000056  00000+0  00000+0 0  9999
2 54259   0.0580  95.3729 0001438   9.6683 296.9328  1.00264501 13319
GALAXY 35 (G-35)        
1 54741U 22170A   26197.30377589 -.00000173  00000+0  00000+0 0  9990
2 54741   0.0157  72.5557 0001807  43.8246 193.9981  1.00272279 13183
GALAXY 36 (G-36)        
1 54742U 22170B   26196.61074071 -.00000195  00000+0  00000+0 0  9998
2 54742   0.0054 142.8857 0002396 316.1422 325.2844  1.00270281 13055
METEOSAT-12 (MTG-I1)    
1 54743U 22170C   26197.26982968 -.00000019  00000+0  00000+0 0  9999
2 54743   0.7264  19.9203 0003846  81.6821 289.3043  1.00267987 13277
SHIJIAN-23 (SJ-23)      
1 55131U 23002A   26196.79097700 -.00000365  00000+0  00000+0 0  9998
2 55131   3.7889  77.9512 0003428 271.6051 357.5202  1.00076519 12794
APSTAR-6E               
1 55239U 23005A   26195.81576662  .00000000  00000+0  00000+0 0  9996
2 55239   0.0207 271.3385 0002136 293.8948 155.1380  1.00265114 18966
USA 342                 
1 55263U 23008A   26190.28864118  .00000000  00000+0  00000+0 0  9998
2 55263   0.0052 352.2306 0000262   7.3445  55.4773  1.00269378 12734
LDPE-3A                 
1 55264U 23008B   26197.29634980 -.00000294  00000+0  00000+0 0  9995
2 55264   2.4219  81.3025 0001532  76.5068  16.3472  0.99149734 12107
ELEKTRO-L 4             
1 55506U 23016A   26196.72396216 -.00000069  00000+0  00000+0 0  9997
2 55506   0.1191 278.1944 0001507 255.5112 186.2763  1.00270583 12624
AMAZONAS NEXUS          
1 55508U 23017A   26194.76278008 -.00000287  00000+0  00000+0 0  9992
2 55508   0.0356  42.7695 0004364  42.6416  59.8176  1.00268939  7317
ZHONGXING-26            
1 55686U 23023A   26197.29470314 -.00000364  00000+0  00000+0 0  9997
2 55686   0.0621  70.9710 0003412  26.9896  67.3702  1.00267264 12528
LUCH-5X (OLYMP-K 2)     
1 55841U 23031A   26196.49809188  .00000023  00000+0  00000+0 0  9996
2 55841   0.0319  96.7468 0000977 175.3046 262.5805  1.00271236 12224
GAOFEN-13 02            
1 55912U 23036A   26197.60114275 -.00000229  00000+0  00000+0 0  9999
2 55912   1.0281   4.7737 0003675 336.9533 317.3602  1.00274097 12383
SES-18                  
1 55970U 23038A   26197.30111228 -.00000111  00000+0  00000+0 0  9997
2 55970   0.0500 251.5469 0000762 313.9977  93.8933  1.00270401 12394
SES-19                  
1 55971U 23038B   26196.53035786  .00000078  00000+0  00000+0 0  9997
2 55971   0.0103   1.5399 0001517 111.9485 235.9011  1.00269536 12379
INTELSAT 40E (IS-40E)   
1 56174U 23052A   26197.30415986 -.00000185  00000+0  00000+0 0  9999
2 56174   0.0154  74.8217 0002239  69.3495 168.4628  1.00271785 12117
VIASAT-3 F1             
1 56370U 23060A   26195.82648433  .00000000  00000+0  00000+0 0  9991
2 56370   0.0149  26.8771 0000771  79.6667  34.7004  1.00270317 11713
ARCTURUS                
1 56371U 23060B   26197.11275348 -.00000352  00000+0  00000+0 0  9998
2 56371   2.8463  79.5814 0001047 132.1288 222.9192  1.00594292 11740
GS-1                    
1 56372U 23060C   26196.78861578 -.00000234  00000+0  00000+0 0  9996
2 56372   2.7966  79.4935 0003373 280.7224 306.6091  1.00266601  7827
BEIDOU-3 G4             
1 56564U 23066A   26197.29764981 -.00000291  00000+0  00000+0 0  9995
2 56564   0.4597 339.2862 0004918 186.4792  15.5859  1.00272164 11687
ARABSAT-7B (BADR-8)     
1 56757U 23075A   26195.49293264  .00000137  00000+0  00000+0 0  9998
2 56757   0.0743  30.7036 0003416 358.3138 106.7877  1.00271079 11397
NVS-01 (IRNSS-1J)       
1 56759U 23076A   26197.29556980 -.00000348  00000+0  00000+0 0  9993
2 56759   2.0989 243.0279 0003523   6.5592 280.3397  1.00264283 11403
NUSANTARA TIGA (SATRIA) 
1 57045U 23086A   26195.23152285 -.00000241  00000+0  00000+0 0  9997
2 57045   0.0345  12.3074 0002657 332.6277 176.5079  1.00272319 10036
H2SAT (HEINRICH HERTZ)  
1 57213U 23093A   26197.12749103 -.00000009  00000+0  00000+0 0  9995
2 57213   0.0260  98.8694 0000443  46.5275 195.1428  1.00270533 11207
SYRACUSE 4B             
1 57214U 23093B   26194.55973402  .00000000  00000+0  00000+0 0  9991
2 57214   0.0280  56.3015 0000448 204.3313 225.8578  1.00269537  7235
