OBJECT_NAME,OBJECT_ID,EPOCH,MEAN_MOTION,ECCENTRICITY,INCLINATION,RA_OF_ASC_NODE,ARG_OF_PERICENTER,MEAN_ANOMALY,EPHEMERIS_TYPE,CLASSIFICATION_TYPE,NORAD_CAT_ID,ELEMENT_SET_NO,REV_AT_EPOCH,BSTAR,MEAN_MOTION_DOT,MEAN_MOTION_DDOT
EUTELSAT HOTBIRD 13F,2022-134A,2026-07-16T06:32:25.414368,1.00270244,.0002016,0.0586,284.2996,73.0330,47.8906,0,U,54048,999,1366,0,.76E-6,0
LDPE-2,2022-144A,2026-07-15T11:20:38.612832,1.00543934,.00023594,5.6794,63.4142,109.0609,160.7234,0,U,54219,999,1212,0,.14E-6,0
EUTELSAT HOTBIRD 13G,2022-146A,2026-07-16T06:32:25.414368,1.00269712,.00019543,0.0176,230.5305,308.8564,225.8484,0,U,54225,999,775,0,0,0
ZHONGXING-19,2022-148A,2026-07-16T05:32:36.724704,1.00269752,.00030846,0.0208,61.9744,74.1661,44.2736,0,U,54230,999,1367,0,0,0
GALAXY 31 (G-31),2022-153A,2026-07-16T05:54:08.136000,1.00271495,.00010262,0.0143,89.4794,30.4985,141.6154,0,U,54243,999,742,0,.3E-7,0
GALAXY 32 (G-32),2022-153B,2026-07-16T07:17:59.442144,1.00272471,.00013487,0.0086,46.8581,357.5455,268.2247,0,U,54244,999,1343,0,-.185E-5,0
EUTELSAT 10B,2022-157A,2026-07-16T06:31:32.997216,1.00264501,.00014385,0.0580,95.3729,9.6683,296.9328,0,U,54259,999,1331,0,.56E-6,0
GALAXY 35 (G-35),2022-170A,2026-07-16T07:17:26.236896,1.00272279,.00018072,0.0157,72.5557,43.8246,193.9981,0,U,54741,999,1318,0,-.173E-5,0
GALAXY 36 (G-36),2022-170B,2026-07-15T14:39:27.997344,1.00270281,.00023966,0.0054,142.8857,316.1422,325.2844,0,U,54742,999,1305,0,-.195E-5,0
METEOSAT-12 (MTG-I1),2022-170C,2026-07-16T06:28:33.284352,1.00267987,.00038463,0.7264,19.9203,81.6821,289.3043,0,U,54743,999,1327,0,-.19E-6,0
SHIJIAN-23 (SJ-23),2023-002A,2026-07-15T18:59:00.412800,1.00076519,.0003428,3.7889,77.9512,271.6051,357.5202,0,U,55131,999,1279,0,-.365E-5,0
APSTAR-6E,2023-005A,2026-07-14T19:34:42.235968,1.00265114,.00021361,0.0207,271.3385,293.8948,155.1380,0,U,55239,999,1896,0,0,0
USA 342,2023-008A,2026-07-09T06:55:38.597952,1.00269378,.0000262,0.0052,352.2306,7.3445,55.4773,0,U,55263,999,1273,0,0,0
LDPE-3A,2023-008B,2026-07-16T07:06:44.622720,0.99149734,.0001532,2.4219,81.3025,76.5068,16.3472,0,U,55264,999,1210,0,-.294E-5,0
ELEKTRO-L 4,2023-016A,2026-07-15T17:22:30.330624,1.00270583,.00015075,0.1191,278.1944,255.5112,186.2763,0,U,55506,999,1262,0,-.69E-6,0
AMAZONAS NEXUS,2023-017A,2026-07-13T18:18:24.198912,1.00268939,.00043642,0.0356,42.7695,42.6416,59.8176,0,U,55508,999,731,0,-.287E-5,0
ZHONGXING-26,2023-023A,2026-07-16T07:04:22.351296,1.00267264,.00034123,0.0621,70.9710,26.9896,67.3702,0,U,55686,999,1252,0,-.364E-5,0
LUCH-5X (OLYMP-K 2),2023-031A,2026-07-15T11:57:15.138432,1.00271236,.0000977,0.0319,96.7468,175.3046,262.5805,0,U,55841,999,1222,0,.23E-6,0
GAOFEN-13 02,2023-036A,2026-07-16T14:25:38.733600,1.00274097,.0003675,1.0281,4.7737,336.9533,317.3602,0,U,55912,999,1238,0,-.229E-5,0
SES-18,2023-038A,2026-07-16T07:13:36.100992,1.00270401,.00007622,0.0500,251.5469,313.9977,93.8933,0,U,55970,999,1239,0,-.111E-5,0
SES-19,2023-038B,2026-07-15T12:43:42.919104,1.00269536,.0001517,0.0103,1.5399,111.9485,235.9011,0,U,55971,999,1237,0,.78E-6,0
INTELSAT 40E (IS-40E),2023-052A,2026-07-16T07:17:59.411904,1.00271785,.00022399,0.0154,74.8217,69.3495,168.4628,0,U,56174,999,1211,0,-.185E-5,0
VIASAT-3 F1,2023-060A,2026-07-14T19:50:08.246112,1.00270317,.00007716,0.0149,26.8771,79.6667,34.7004,0,U,56370,999,1171,0,0,0
ARCTURUS,2023-060B,2026-07-16T02:42:21.900672,1.00594292,.0001047,2.8463,79.5814,132.1288,222.9192,0,U,56371,999,1174,0,-.352E-5,0
GS-1,2023-060C,2026-07-15T18:55:36.403392,1.00266601,.00033739,2.7966,79.4935,280.7224,306.6091,0,U,56372,999,782,0,-.234E-5,0
BEIDOU-3 G4,2023-066A,2026-07-16T07:08:36.943584,1.00272164,.00049186,0.4597,339.2862,186.4792,15.5859,0,U,56564,999,1168,0,-.291E-5,0
ARABSAT-7B (BADR-8),2023-075A,2026-07-14T11:49:49.380096,1.00271079,.0003416,0.0743,30.7036,358.3138,106.7877,0,U,56757,999,1139,0,.137E-5,0
NVS-01 (IRNSS-1J),2023-076A,2026-07-16T07:05:37.230720,1.00264283,.00035231,2.0989,243.0279,6.5592,280.3397,0,U,56759,999,1140,0,-.348E-5,0
NUSANTARA TIGA (SATRIA),2023-086A,2026-07-14T05:33:23.574240,1.00272319,.00026572,0.0345,12.3074,332.6277,176.5079,0,U,57045,999,1003,0,-.241E-5,0
H2SAT (HEINRICH HERTZ),2023-093A,2026-07-16T03:03:35.224992,1.00270533,.00004432,0.0260,98.8694,46.5275,195.1428,0,U,57213,999,1120,0,-.9E-7,0
SYRACUSE 4B,2023-093B,2026-07-13T13:26:01.019328,1.00269537,.0000448,0.0280,56.3015,204.3313,225.8578,0,U,57214,999,723,0,0,0
